CCSDS_OMM_VERS = 2.0
CREATION_DATE  = 
ORIGINATOR     = 

OBJECT_NAME    = STARLINK-36654
OBJECT_ID      = 2026-033T
CENTER_NAME    = EARTH
REF_FRAME      = TEME
TIME_SYSTEM    = UTC
MEAN_ELEMENT_THEORY = SGP/SGP4

EPOCH          = 2026-03-02T20:00:01.999008
MEAN_MOTION    = 15.82017601
ECCENTRICITY   = .0001594
INCLINATION    = 42.9978
RA_OF_ASC_NODE = 313.3748
ARG_OF_PERICENTER = 262.6089
MEAN_ANOMALY   = 283.0462

EPHEMERIS_TYPE = 0
CLASSIFICATION_TYPE = U
NORAD_CAT_ID   = 67838
ELEMENT_SET_NO = 999
REV_AT_EPOCH   = 356
BSTAR          = -.54317E-4
MEAN_MOTION_DOT = -.11955E-3
MEAN_MOTION_DDOT = 0

CCSDS_OMM_VERS = 2.0
CREATION_DATE  = 
ORIGINATOR     = 

OBJECT_NAME    = STARLINK-36652
OBJECT_ID      = 2026-033U
CENTER_NAME    = EARTH
REF_FRAME      = TEME
TIME_SYSTEM    = UTC
MEAN_ELEMENT_THEORY = SGP/SGP4

EPOCH          = 2026-03-02T20:00:01.999008
MEAN_MOTION    = 15.82005709
ECCENTRICITY   = .0001509
INCLINATION    = 42.9977
RA_OF_ASC_NODE = 313.3642
ARG_OF_PERICENTER = 265.4453
MEAN_ANOMALY   = 284.4766

EPHEMERIS_TYPE = 0
CLASSIFICATION_TYPE = U
NORAD_CAT_ID   = 67839
ELEMENT_SET_NO = 999
REV_AT_EPOCH   = 356
BSTAR          = .12458E-3
MEAN_MOTION_DOT = .25764E-3
MEAN_MOTION_DDOT = 0

CCSDS_OMM_VERS = 2.0
CREATION_DATE  = 
ORIGINATOR     = 

OBJECT_NAME    = STARLINK-36651
OBJECT_ID      = 2026-033V
CENTER_NAME    = EARTH
REF_FRAME      = TEME
TIME_SYSTEM    = UTC
MEAN_ELEMENT_THEORY = SGP/SGP4

EPOCH          = 2026-03-02T20:00:01.999008
MEAN_MOTION    = 15.82023398
ECCENTRICITY   = .0002122
INCLINATION    = 42.9977
RA_OF_ASC_NODE = 313.3537
ARG_OF_PERICENTER = 235.1444
MEAN_ANOMALY   = 319.0517

EPHEMERIS_TYPE = 0
CLASSIFICATION_TYPE = U
NORAD_CAT_ID   = 67840
ELEMENT_SET_NO = 999
REV_AT_EPOCH   = 356
BSTAR          = -.50678E-4
MEAN_MOTION_DOT = -.11196E-3
MEAN_MOTION_DDOT = 0

CCSDS_OMM_VERS = 2.0
CREATION_DATE  = 
ORIGINATOR     = 

OBJECT_NAME    = STARLINK-36656
OBJECT_ID      = 2026-033W
CENTER_NAME    = EARTH
REF_FRAME      = TEME
TIME_SYSTEM    = UTC
MEAN_ELEMENT_THEORY = SGP/SGP4

EPOCH          = 2026-03-02T20:00:01.999008
MEAN_MOTION    = 15.82020866
ECCENTRICITY   = .0002309
INCLINATION    = 42.9978
RA_OF_ASC_NODE = 313.3430
ARG_OF_PERICENTER = 272.7500
MEAN_ANOMALY   = 285.7223

EPHEMERIS_TYPE = 0
CLASSIFICATION_TYPE = U
NORAD_CAT_ID   = 67841
ELEMENT_SET_NO = 999
REV_AT_EPOCH   = 356
BSTAR          = -.10281E-3
MEAN_MOTION_DOT = -.22134E-3
MEAN_MOTION_DDOT = 0

CCSDS_OMM_VERS = 2.0
CREATION_DATE  = 
ORIGINATOR     = 

OBJECT_NAME    = STARLINK-36653
OBJECT_ID      = 2026-033X
CENTER_NAME    = EARTH
REF_FRAME      = TEME
TIME_SYSTEM    = UTC
MEAN_ELEMENT_THEORY = SGP/SGP4

EPOCH          = 2026-03-02T20:00:01.999008
MEAN_MOTION    = 15.82018254
ECCENTRICITY   = .0001761
INCLINATION    = 42.9977
RA_OF_ASC_NODE = 313.3321
ARG_OF_PERICENTER = 266.2911
MEAN_ANOMALY   = 296.4539

EPHEMERIS_TYPE = 0
CLASSIFICATION_TYPE = U
NORAD_CAT_ID   = 67842
ELEMENT_SET_NO = 999
REV_AT_EPOCH   = 356
BSTAR          = -.8851E-4
MEAN_MOTION_DOT = -.19132E-3
MEAN_MOTION_DDOT = 0

CCSDS_OMM_VERS = 2.0
CREATION_DATE  = 
ORIGINATOR     = 

OBJECT_NAME    = STARLINK-36589
OBJECT_ID      = 2026-033Y
CENTER_NAME    = EARTH
REF_FRAME      = TEME
TIME_SYSTEM    = UTC
MEAN_ELEMENT_THEORY = SGP/SGP4

EPOCH          = 2026-03-02T20:00:01.999008
MEAN_MOTION    = 15.82005392
ECCENTRICITY   = .0001788
INCLINATION    = 42.9982
RA_OF_ASC_NODE = 313.3224
ARG_OF_PERICENTER = 274.5572
MEAN_ANOMALY   = 292.4498

EPHEMERIS_TYPE = 0
CLASSIFICATION_TYPE = U
NORAD_CAT_ID   = 67843
ELEMENT_SET_NO = 999
REV_AT_EPOCH   = 356
BSTAR          = .20805E-3
MEAN_MOTION_DOT = .43474E-3
MEAN_MOTION_DDOT = 0

CCSDS_OMM_VERS = 2.0
CREATION_DATE  = 
ORIGINATOR     = 

OBJECT_NAME    = STARLINK-36598
OBJECT_ID      = 2026-033Z
CENTER_NAME    = EARTH
REF_FRAME      = TEME
TIME_SYSTEM    = UTC
MEAN_ELEMENT_THEORY = SGP/SGP4

EPOCH          = 2026-03-02T20:00:01.999008
MEAN_MOTION    = 15.82006683
ECCENTRICITY   = .0001742
INCLINATION    = 42.9981
RA_OF_ASC_NODE = 313.3106
ARG_OF_PERICENTER = 269.4539
MEAN_ANOMALY   = 301.8412

EPHEMERIS_TYPE = 0
CLASSIFICATION_TYPE = U
NORAD_CAT_ID   = 67844
ELEMENT_SET_NO = 999
REV_AT_EPOCH   = 356
BSTAR          = .97981E-4
MEAN_MOTION_DOT = .20137E-3
MEAN_MOTION_DDOT = 0

CCSDS_OMM_VERS = 2.0
CREATION_DATE  = 
ORIGINATOR     = 

OBJECT_NAME    = STARLINK-36606
OBJECT_ID      = 2026-033AA
CENTER_NAME    = EARTH
REF_FRAME      = TEME
TIME_SYSTEM    = UTC
MEAN_ELEMENT_THEORY = SGP/SGP4

EPOCH          = 2026-03-02T20:00:01.999008
MEAN_MOTION    = 15.82025789
ECCENTRICITY   = .0001908
INCLINATION    = 42.9978
RA_OF_ASC_NODE = 313.2996
ARG_OF_PERICENTER = 267.2693
MEAN_ANOMALY   = 308.2852

EPHEMERIS_TYPE = 0
CLASSIFICATION_TYPE = U
NORAD_CAT_ID   = 67845
ELEMENT_SET_NO = 999
REV_AT_EPOCH   = 356
BSTAR          = -.97289E-4
MEAN_MOTION_DOT = -.2098E-3
MEAN_MOTION_DDOT = 0

CCSDS_OMM_VERS = 2.0
CREATION_DATE  = 
ORIGINATOR     = 

OBJECT_NAME    = STARLINK-36658
OBJECT_ID      = 2026-033AB
CENTER_NAME    = EARTH
REF_FRAME      = TEME
TIME_SYSTEM    = UTC
MEAN_ELEMENT_THEORY = SGP/SGP4

EPOCH          = 2026-03-02T20:00:01.999008
MEAN_MOTION    = 15.82001797
ECCENTRICITY   = .00016
INCLINATION    = 42.9977
RA_OF_ASC_NODE = 313.2886
ARG_OF_PERICENTER = 270.0455
MEAN_ANOMALY   = 309.7938

EPHEMERIS_TYPE = 0
CLASSIFICATION_TYPE = U
NORAD_CAT_ID   = 67846
ELEMENT_SET_NO = 999
REV_AT_EPOCH   = 356
BSTAR          = .98633E-4
MEAN_MOTION_DOT = .2027E-3
MEAN_MOTION_DDOT = 0

CCSDS_OMM_VERS = 2.0
CREATION_DATE  = 
ORIGINATOR     = 

OBJECT_NAME    = STARLINK-36618
OBJECT_ID      = 2026-033AC
CENTER_NAME    = EARTH
REF_FRAME      = TEME
TIME_SYSTEM    = UTC
MEAN_ELEMENT_THEORY = SGP/SGP4

EPOCH          = 2026-03-02T19:37:15.976128
MEAN_MOTION    = 15.99086231
ECCENTRICITY   = .0003214
INCLINATION    = 42.9866
RA_OF_ASC_NODE = 311.8820
ARG_OF_PERICENTER = 245.1255
MEAN_ANOMALY   = 114.9288

EPHEMERIS_TYPE = 0
CLASSIFICATION_TYPE = U
NORAD_CAT_ID   = 67847
ELEMENT_SET_NO = 999
REV_AT_EPOCH   = 355
BSTAR          = .19489E-3
MEAN_MOTION_DOT = .96149E-3
MEAN_MOTION_DDOT = .12226E-4

CCSDS_OMM_VERS = 2.0
CREATION_DATE  = 
ORIGINATOR     = 

OBJECT_NAME    = STARLINK-36660
OBJECT_ID      = 2026-033AD
CENTER_NAME    = EARTH
REF_FRAME      = TEME
TIME_SYSTEM    = UTC
MEAN_ELEMENT_THEORY = SGP/SGP4

EPOCH          = 2026-03-02T20:00:01.999008
MEAN_MOTION    = 15.82001323
ECCENTRICITY   = .0001763
INCLINATION    = 42.9981
RA_OF_ASC_NODE = 313.2782
ARG_OF_PERICENTER = 246.0778
MEAN_ANOMALY   = 338.0335

EPHEMERIS_TYPE = 0
CLASSIFICATION_TYPE = U
NORAD_CAT_ID   = 67848
ELEMENT_SET_NO = 999
REV_AT_EPOCH   = 356
BSTAR          = .13091E-3
MEAN_MOTION_DOT = .27099E-3
MEAN_MOTION_DDOT = 0

CCSDS_OMM_VERS = 2.0
CREATION_DATE  = 
ORIGINATOR     = 

OBJECT_NAME    = STARLINK-36602
OBJECT_ID      = 2026-033AE
CENTER_NAME    = EARTH
REF_FRAME      = TEME
TIME_SYSTEM    = UTC
MEAN_ELEMENT_THEORY = SGP/SGP4

EPOCH          = 2026-03-02T20:00:01.999008
MEAN_MOTION    = 15.82002601
ECCENTRICITY   = .0001815
INCLINATION    = 42.9977
RA_OF_ASC_NODE = 313.2667
ARG_OF_PERICENTER = 306.3718
MEAN_ANOMALY   = 282.0214

EPHEMERIS_TYPE = 0
CLASSIFICATION_TYPE = U
NORAD_CAT_ID   = 67849
ELEMENT_SET_NO = 999
REV_AT_EPOCH   = 356
BSTAR          = .36638E-4
MEAN_MOTION_DOT = .7183E-4
MEAN_MOTION_DDOT = 0

