STARLINK-36654          
1 67838U 26033T   26061.83335647 -.00011955  00000+0 -54317-4 0  9996
2 67838  42.9978 313.3748 0001594 262.6089 283.0462 15.82017601  3564
STARLINK-36652          
1 67839U 26033U   26061.83335647  .00025764  00000+0  12458-3 0  9997
2 67839  42.9977 313.3642 0001509 265.4453 284.4766 15.82005709  3567
STARLINK-36651          
1 67840U 26033V   26061.83335647 -.00011196  00000+0 -50678-4 0  9992
2 67840  42.9977 313.3537 0002122 235.1444 319.0517 15.82023398  3561
STARLINK-36656          
1 67841U 26033W   26061.83335647 -.00022134  00000+0 -10281-3 0  9992
2 67841  42.9978 313.3430 0002309 272.7500 285.7223 15.82020866  3562
STARLINK-36653          
1 67842U 26033X   26061.83335647 -.00019132  00000+0 -88510-4 0  9998
2 67842  42.9977 313.3321 0001761 266.2911 296.4539 15.82018254  3563
STARLINK-36589          
1 67843U 26033Y   26061.83335647  .00043474  00000+0  20805-3 0  9995
2 67843  42.9982 313.3224 0001788 274.5572 292.4498 15.82005392  3565
STARLINK-36598          
1 67844U 26033Z   26061.83335647  .00020137  00000+0  97981-4 0  9997
2 67844  42.9981 313.3106 0001742 269.4539 301.8412 15.82006683  3565
STARLINK-36606          
1 67845U 26033AA  26061.83335647 -.00020980  00000+0 -97289-4 0  9997
2 67845  42.9978 313.2996 0001908 267.2693 308.2852 15.82025789  3566
STARLINK-36658          
1 67846U 26033AB  26061.83335647  .00020270  00000+0  98633-4 0  9992
2 67846  42.9977 313.2886 0001600 270.0455 309.7938 15.82001797  3565
STARLINK-36618          
1 67847U 26033AC  26061.81754602  .00096149  12226-4  19489-3 0  9994
2 67847  42.9866 311.8820 0003214 245.1255 114.9288 15.99086231  3556
STARLINK-36660          
1 67848U 26033AD  26061.83335647  .00027099  00000+0  13091-3 0  9994
2 67848  42.9981 313.2782 0001763 246.0778 338.0335 15.82001323  3569
STARLINK-36602          
1 67849U 26033AE  26061.83335647  .00007183  00000+0  36638-4 0  9990
2 67849  42.9977 313.2667 0001815 306.3718 282.0214 15.82002601  3563
